,URL,DIST_FRM_ORG,ORG,DEALER,DEALER_LINK,STREET,LOCALITY,REGION,POSTAL_CODE,TEL_TYPE,TEL_LINK
0,https://www.mbusa.com/mercedes/dealers/locator#!layout=/dealers/locator&businessType=DEALERS&radius=0%2C25&expandRadius=false&searchType=byZip&zip=10019,0.70 mi,"Mercedes-Benz Manhattan, Inc.","Mercedes-Benz Manhattan, Inc.",http://www.mbmanhattan.com/,770 11th Avenue,New York,NY,10019,(212) 629-1600,1-212-629-1600
1,https://www.mbusa.com/mercedes/dealers/locator#!layout=/dealers/locator&businessType=DEALERS&radius=0%2C25&expandRadius=false&searchType=byZip&zip=10019,3.55 mi,Silver Star Motors,Silver Star Motors,http://www.silverstar.mercedesdealer.com/,36-11 Northern Boulevard,Long Island City,NY,11101,(718) 361-2332,1-718-361-2332
2,https://www.mbusa.com/mercedes/dealers/locator#!layout=/dealers/locator&businessType=DEALERS&radius=0%2C25&expandRadius=false&searchType=byZip&zip=10019,8.56 mi,Benzel-Busch Motor Car Corp.,Benzel-Busch Motor Car Corp.,http://mercedes.benzelbusch.com/,28 Grand Avenue,Englewood,NJ,7631,(866) 751-2754,1-866-751-2754
3,https://www.mbusa.com/mercedes/dealers/locator#!layout=/dealers/locator&businessType=DEALERS&radius=0%2C25&expandRadius=false&searchType=byZip&zip=10019,11.39 mi,"Helms Bros., Inc.","Helms Bros., Inc.",http://www.helmsbros.mercedesdealer.com/,208-24 Northern Blvd.,Bayside,NY,11361,(718) 631-8181,1-718-631-8181
4,https://www.mbusa.com/mercedes/dealers/locator#!layout=/dealers/locator&businessType=DEALERS&radius=0%2C25&expandRadius=false&searchType=byZip&zip=10019,12.22 mi,Mercedes-Benz of Brooklyn,Mercedes-Benz of Brooklyn,http://www.brooklyn.mercedesdealer.com/,1810 Shore Parkway,Brooklyn,NY,11214,(718) 258-5100,1-718-258-5100
5,https://www.mbusa.com/mercedes/dealers/locator#!layout=/dealers/locator&businessType=DEALERS&radius=0%2C25&expandRadius=false&searchType=byZip&zip=10019,12.94 mi,"Prestige Motors, Inc.","Prestige Motors, Inc.",http://www.prestige.mercedesdealer.com/,755 Route 17,Paramus,NJ,7652,(201) 265-7800,1-201-265-7800
6,https://www.mbusa.com/mercedes/dealers/locator#!layout=/dealers/locator&businessType=DEALERS&radius=0%2C25&expandRadius=false&searchType=byZip&zip=10019,15.89 mi,Mercedes-Benz of New Rochelle,Mercedes-Benz of New Rochelle,http://www.mbnewrochelle.com/,77 East Main Street,New Rochelle,NY,10801,(914) 275-4000,1-914-275-4000
7,https://www.mbusa.com/mercedes/dealers/locator#!layout=/dealers/locator&businessType=DEALERS&radius=0%2C25&expandRadius=false&searchType=byZip&zip=10019,17.24 mi,Ray Catena of Union LLC,Ray Catena of Union LLC,http://www.raycatenaunion.com/,2585 Route 22 West,Union,NJ,7083,(908) 379-7200,1-908-379-7200
8,https://www.mbusa.com/mercedes/dealers/locator#!layout=/dealers/locator&businessType=DEALERS&radius=0%2C25&expandRadius=false&searchType=byZip&zip=10019,17.93 mi,Mercedes-Benz of Caldwell,Mercedes-Benz of Caldwell,http://www.caldwell.mercedesdealer.com/,1230 Bloomfield Avenue,Fairfield,NJ,7004,(973) 227-3600,1-973-227-3600
9,https://www.mbusa.com/mercedes/dealers/locator#!layout=/dealers/locator&businessType=DEALERS&radius=0%2C25&expandRadius=false&searchType=byZip&zip=10019,18.43 mi,Rallye Motors LLC,Rallye Motors LLC,http://www.rallyemotors.com/,1600 Northern Blvd.,Roslyn,NY,11576,(516) 625-1600,1-516-625-1600
10,https://www.mbusa.com/mercedes/dealers/locator#!layout=/dealers/locator&businessType=DEALERS&radius=0%2C25&expandRadius=false&searchType=byZip&zip=10019,20.58 mi,Mercedes-Benz of Rockville Centre,Mercedes-Benz of Rockville Centre,http://www.lakeview.mercedesdealer.com/,650 Sunrise Highway,Rockville Centre,NY,11570,(516) 766-6900,1-516-766-6900
11,https://www.mbusa.com/mercedes/dealers/locator#!layout=/dealers/locator&businessType=DEALERS&radius=0%2C25&expandRadius=false&searchType=byZip&zip=10019,21.23 mi,Mercedes-Benz of White Plains,Mercedes-Benz of White Plains,http://www.mbwhiteplains.com/,50 Bank Street,White Plains,NY,10606,(914) 949-4000,1-914-949-4000
12,https://www.mbusa.com/mercedes/dealers/locator#!layout=/dealers/locator&businessType=DEALERS&radius=0%2C25&expandRadius=false&searchType=byZip&zip=10019,23.00 mi,Mercedes-Benz of Nanuet,Mercedes-Benz of Nanuet,http://www.nanuet.mercedesdealer.com/,99 Route 304,Nanuet,NY,10954,(845) 624-1500,1-845-624-1500
13,https://www.mbusa.com/mercedes/dealers/locator#!layout=/dealers/locator&businessType=DEALERS&radius=0%2C25&expandRadius=false&searchType=byZip&zip=10019,0.70 mi,"Mercedes-Benz Manhattan, Inc.","Mercedes-Benz Manhattan, Inc.",http://www.mbmanhattan.com/,770 11th Avenue,New York,NY,10019,(212) 629-1600,1-212-629-1600
14,https://www.mbusa.com/mercedes/dealers/locator#!layout=/dealers/locator&businessType=DEALERS&radius=0%2C25&expandRadius=false&searchType=byZip&zip=10019,3.55 mi,Silver Star Motors,Silver Star Motors,http://www.silverstar.mercedesdealer.com/,36-11 Northern Boulevard,Long Island City,NY,11101,(718) 361-2332,1-718-361-2332
15,https://www.mbusa.com/mercedes/dealers/locator#!layout=/dealers/locator&businessType=DEALERS&radius=0%2C25&expandRadius=false&searchType=byZip&zip=10019,8.56 mi,Benzel-Busch Motor Car Corp.,Benzel-Busch Motor Car Corp.,http://mercedes.benzelbusch.com/,28 Grand Avenue,Englewood,NJ,7631,(866) 751-2754,1-866-751-2754
16,https://www.mbusa.com/mercedes/dealers/locator#!layout=/dealers/locator&businessType=DEALERS&radius=0%2C25&expandRadius=false&searchType=byZip&zip=10019,11.39 mi,"Helms Bros., Inc.","Helms Bros., Inc.",http://www.helmsbros.mercedesdealer.com/,208-24 Northern Blvd.,Bayside,NY,11361,(718) 631-8181,1-718-631-8181
17,https://www.mbusa.com/mercedes/dealers/locator#!layout=/dealers/locator&businessType=DEALERS&radius=0%2C25&expandRadius=false&searchType=byZip&zip=10019,12.22 mi,Mercedes-Benz of Brooklyn,Mercedes-Benz of Brooklyn,http://www.brooklyn.mercedesdealer.com/,1810 Shore Parkway,Brooklyn,NY,11214,(718) 258-5100,1-718-258-5100
18,https://www.mbusa.com/mercedes/dealers/locator#!layout=/dealers/locator&businessType=DEALERS&radius=0%2C25&expandRadius=false&searchType=byZip&zip=10019,12.94 mi,"Prestige Motors, Inc.","Prestige Motors, Inc.",http://www.prestige.mercedesdealer.com/,755 Route 17,Paramus,NJ,7652,(201) 265-7800,1-201-265-7800
19,https://www.mbusa.com/mercedes/dealers/locator#!layout=/dealers/locator&businessType=DEALERS&radius=0%2C25&expandRadius=false&searchType=byZip&zip=10019,15.89 mi,Mercedes-Benz of New Rochelle,Mercedes-Benz of New Rochelle,http://www.mbnewrochelle.com/,77 East Main Street,New Rochelle,NY,10801,(914) 275-4000,1-914-275-4000
20,https://www.mbusa.com/mercedes/dealers/locator#!layout=/dealers/locator&businessType=DEALERS&radius=0%2C25&expandRadius=false&searchType=byZip&zip=10019,17.24 mi,Ray Catena of Union LLC,Ray Catena of Union LLC,http://www.raycatenaunion.com/,2585 Route 22 West,Union,NJ,7083,(908) 379-7200,1-908-379-7200
21,https://www.mbusa.com/mercedes/dealers/locator#!layout=/dealers/locator&businessType=DEALERS&radius=0%2C25&expandRadius=false&searchType=byZip&zip=10019,17.93 mi,Mercedes-Benz of Caldwell,Mercedes-Benz of Caldwell,http://www.caldwell.mercedesdealer.com/,1230 Bloomfield Avenue,Fairfield,NJ,7004,(973) 227-3600,1-973-227-3600
22,https://www.mbusa.com/mercedes/dealers/locator#!layout=/dealers/locator&businessType=DEALERS&radius=0%2C25&expandRadius=false&searchType=byZip&zip=10019,18.43 mi,Rallye Motors LLC,Rallye Motors LLC,http://www.rallyemotors.com/,1600 Northern Blvd.,Roslyn,NY,11576,(516) 625-1600,1-516-625-1600
23,https://www.mbusa.com/mercedes/dealers/locator#!layout=/dealers/locator&businessType=DEALERS&radius=0%2C25&expandRadius=false&searchType=byZip&zip=10019,20.58 mi,Mercedes-Benz of Rockville Centre,Mercedes-Benz of Rockville Centre,http://www.lakeview.mercedesdealer.com/,650 Sunrise Highway,Rockville Centre,NY,11570,(516) 766-6900,1-516-766-6900
24,https://www.mbusa.com/mercedes/dealers/locator#!layout=/dealers/locator&businessType=DEALERS&radius=0%2C25&expandRadius=false&searchType=byZip&zip=10019,21.23 mi,Mercedes-Benz of White Plains,Mercedes-Benz of White Plains,http://www.mbwhiteplains.com/,50 Bank Street,White Plains,NY,10606,(914) 949-4000,1-914-949-4000
25,https://www.mbusa.com/mercedes/dealers/locator#!layout=/dealers/locator&businessType=DEALERS&radius=0%2C25&expandRadius=false&searchType=byZip&zip=10019,23.00 mi,Mercedes-Benz of Nanuet,Mercedes-Benz of Nanuet,http://www.nanuet.mercedesdealer.com/,99 Route 304,Nanuet,NY,10954,(845) 624-1500,1-845-624-1500
26,https://www.mbusa.com/mercedes/dealers/locator#!layout=/dealers/locator&businessType=DEALERS&radius=0%2C25&expandRadius=false&searchType=byZip&zip=10020,0.78 mi,"Mercedes-Benz Manhattan, Inc.","Mercedes-Benz Manhattan, Inc.",http://www.mbmanhattan.com/,770 11th Avenue,New York,NY,10019,(212) 629-1600,1-212-629-1600
27,https://www.mbusa.com/mercedes/dealers/locator#!layout=/dealers/locator&businessType=DEALERS&radius=0%2C25&expandRadius=false&searchType=byZip&zip=10020,2.92 mi,Silver Star Motors,Silver Star Motors,http://www.silverstar.mercedesdealer.com/,36-11 Northern Boulevard,Long Island City,NY,11101,(718) 361-2332,1-718-361-2332
28,https://www.mbusa.com/mercedes/dealers/locator#!layout=/dealers/locator&businessType=DEALERS&radius=0%2C25&expandRadius=false&searchType=byZip&zip=10020,9.09 mi,Benzel-Busch Motor Car Corp.,Benzel-Busch Motor Car Corp.,http://mercedes.benzelbusch.com/,28 Grand Avenue,Englewood,NJ,7631,(866) 751-2754,1-866-751-2754
29,https://www.mbusa.com/mercedes/dealers/locator#!layout=/dealers/locator&businessType=DEALERS&radius=0%2C25&expandRadius=false&searchType=byZip&zip=10020,10.87 mi,"Helms Bros., Inc.","Helms Bros., Inc.",http://www.helmsbros.mercedesdealer.com/,208-24 Northern Blvd.,Bayside,NY,11361,(718) 631-8181,1-718-631-8181
30,https://www.mbusa.com/mercedes/dealers/locator#!layout=/dealers/locator&businessType=DEALERS&radius=0%2C25&expandRadius=false&searchType=byZip&zip=10020,11.68 mi,Mercedes-Benz of Brooklyn,Mercedes-Benz of Brooklyn,http://www.brooklyn.mercedesdealer.com/,1810 Shore Parkway,Brooklyn,NY,11214,(718) 258-5100,1-718-258-5100
31,https://www.mbusa.com/mercedes/dealers/locator#!layout=/dealers/locator&businessType=DEALERS&radius=0%2C25&expandRadius=false&searchType=byZip&zip=10020,13.63 mi,"Prestige Motors, Inc.","Prestige Motors, Inc.",http://www.prestige.mercedesdealer.com/,755 Route 17,Paramus,NJ,7652,(201) 265-7800,1-201-265-7800
32,https://www.mbusa.com/mercedes/dealers/locator#!layout=/dealers/locator&businessType=DEALERS&radius=0%2C25&expandRadius=false&searchType=byZip&zip=10020,15.91 mi,Mercedes-Benz of New Rochelle,Mercedes-Benz of New Rochelle,http://www.mbnewrochelle.com/,77 East Main Street,New Rochelle,NY,10801,(914) 275-4000,1-914-275-4000
33,https://www.mbusa.com/mercedes/dealers/locator#!layout=/dealers/locator&businessType=DEALERS&radius=0%2C25&expandRadius=false&searchType=byZip&zip=10020,17.55 mi,Ray Catena of Union LLC,Ray Catena of Union LLC,http://www.raycatenaunion.com/,2585 Route 22 West,Union,NJ,7083,(908) 379-7200,1-908-379-7200
34,https://www.mbusa.com/mercedes/dealers/locator#!layout=/dealers/locator&businessType=DEALERS&radius=0%2C25&expandRadius=false&searchType=byZip&zip=10020,18.03 mi,Rallye Motors LLC,Rallye Motors LLC,http://www.rallyemotors.com/,1600 Northern Blvd.,Roslyn,NY,11576,(516) 625-1600,1-516-625-1600
35,https://www.mbusa.com/mercedes/dealers/locator#!layout=/dealers/locator&businessType=DEALERS&radius=0%2C25&expandRadius=false&searchType=byZip&zip=10020,18.60 mi,Mercedes-Benz of Caldwell,Mercedes-Benz of Caldwell,http://www.caldwell.mercedesdealer.com/,1230 Bloomfield Avenue,Fairfield,NJ,7004,(973) 227-3600,1-973-227-3600
36,https://www.mbusa.com/mercedes/dealers/locator#!layout=/dealers/locator&businessType=DEALERS&radius=0%2C25&expandRadius=false&searchType=byZip&zip=10020,19.91 mi,Mercedes-Benz of Rockville Centre,Mercedes-Benz of Rockville Centre,http://www.lakeview.mercedesdealer.com/,650 Sunrise Highway,Rockville Centre,NY,11570,(516) 766-6900,1-516-766-6900
37,https://www.mbusa.com/mercedes/dealers/locator#!layout=/dealers/locator&businessType=DEALERS&radius=0%2C25&expandRadius=false&searchType=byZip&zip=10020,21.45 mi,Mercedes-Benz of White Plains,Mercedes-Benz of White Plains,http://www.mbwhiteplains.com/,50 Bank Street,White Plains,NY,10606,(914) 949-4000,1-914-949-4000
38,https://www.mbusa.com/mercedes/dealers/locator#!layout=/dealers/locator&businessType=DEALERS&radius=0%2C25&expandRadius=false&searchType=byZip&zip=10020,23.58 mi,Mercedes-Benz of Nanuet,Mercedes-Benz of Nanuet,http://www.nanuet.mercedesdealer.com/,99 Route 304,Nanuet,NY,10954,(845) 624-1500,1-845-624-1500
39,https://www.mbusa.com/mercedes/dealers/locator#!layout=/dealers/locator&businessType=DEALERS&radius=0%2C25&expandRadius=false&searchType=byZip&zip=10021,2.02 mi,Silver Star Motors,Silver Star Motors,http://www.silverstar.mercedesdealer.com/,36-11 Northern Boulevard,Long Island City,NY,11101,(718) 361-2332,1-718-361-2332
40,https://www.mbusa.com/mercedes/dealers/locator#!layout=/dealers/locator&businessType=DEALERS&radius=0%2C25&expandRadius=false&searchType=byZip&zip=10021,2.17 mi,"Mercedes-Benz Manhattan, Inc.","Mercedes-Benz Manhattan, Inc.",http://www.mbmanhattan.com/,770 11th Avenue,New York,NY,10019,(212) 629-1600,1-212-629-1600
41,https://www.mbusa.com/mercedes/dealers/locator#!layout=/dealers/locator&businessType=DEALERS&radius=0%2C25&expandRadius=false&searchType=byZip&zip=10021,8.46 mi,Benzel-Busch Motor Car Corp.,Benzel-Busch Motor Car Corp.,http://mercedes.benzelbusch.com/,28 Grand Avenue,Englewood,NJ,7631,(866) 751-2754,1-866-751-2754
42,https://www.mbusa.com/mercedes/dealers/locator#!layout=/dealers/locator&businessType=DEALERS&radius=0%2C25&expandRadius=false&searchType=byZip&zip=10021,9.63 mi,"Helms Bros., Inc.","Helms Bros., Inc.",http://www.helmsbros.mercedesdealer.com/,208-24 Northern Blvd.,Bayside,NY,11361,(718) 631-8181,1-718-631-8181
43,https://www.mbusa.com/mercedes/dealers/locator#!layout=/dealers/locator&businessType=DEALERS&radius=0%2C25&expandRadius=false&searchType=byZip&zip=10021,12.47 mi,Mercedes-Benz of Brooklyn,Mercedes-Benz of Brooklyn,http://www.brooklyn.mercedesdealer.com/,1810 Shore Parkway,Brooklyn,NY,11214,(718) 258-5100,1-718-258-5100
44,https://www.mbusa.com/mercedes/dealers/locator#!layout=/dealers/locator&businessType=DEALERS&radius=0%2C25&expandRadius=false&searchType=byZip&zip=10021,13.52 mi,"Prestige Motors, Inc.","Prestige Motors, Inc.",http://www.prestige.mercedesdealer.com/,755 Route 17,Paramus,NJ,7652,(201) 265-7800,1-201-265-7800
45,https://www.mbusa.com/mercedes/dealers/locator#!layout=/dealers/locator&businessType=DEALERS&radius=0%2C25&expandRadius=false&searchType=byZip&zip=10021,14.55 mi,Mercedes-Benz of New Rochelle,Mercedes-Benz of New Rochelle,http://www.mbnewrochelle.com/,77 East Main Street,New Rochelle,NY,10801,(914) 275-4000,1-914-275-4000
46,https://www.mbusa.com/mercedes/dealers/locator#!layout=/dealers/locator&businessType=DEALERS&radius=0%2C25&expandRadius=false&searchType=byZip&zip=10021,16.67 mi,Rallye Motors LLC,Rallye Motors LLC,http://www.rallyemotors.com/,1600 Northern Blvd.,Roslyn,NY,11576,(516) 625-1600,1-516-625-1600
47,https://www.mbusa.com/mercedes/dealers/locator#!layout=/dealers/locator&businessType=DEALERS&radius=0%2C25&expandRadius=false&searchType=byZip&zip=10021,18.95 mi,Ray Catena of Union LLC,Ray Catena of Union LLC,http://www.raycatenaunion.com/,2585 Route 22 West,Union,NJ,7083,(908) 379-7200,1-908-379-7200
48,https://www.mbusa.com/mercedes/dealers/locator#!layout=/dealers/locator&businessType=DEALERS&radius=0%2C25&expandRadius=false&searchType=byZip&zip=10021,18.99 mi,Mercedes-Benz of Rockville Centre,Mercedes-Benz of Rockville Centre,http://www.lakeview.mercedesdealer.com/,650 Sunrise Highway,Rockville Centre,NY,11570,(516) 766-6900,1-516-766-6900
49,https://www.mbusa.com/mercedes/dealers/locator#!layout=/dealers/locator&businessType=DEALERS&radius=0%2C25&expandRadius=false&searchType=byZip&zip=10021,19.57 mi,Mercedes-Benz of Caldwell,Mercedes-Benz of Caldwell,http://www.caldwell.mercedesdealer.com/,1230 Bloomfield Avenue,Fairfield,NJ,7004,(973) 227-3600,1-973-227-3600
50,https://www.mbusa.com/mercedes/dealers/locator#!layout=/dealers/locator&businessType=DEALERS&radius=0%2C25&expandRadius=false&searchType=byZip&zip=10021,20.26 mi,Mercedes-Benz of White Plains,Mercedes-Benz of White Plains,http://www.mbwhiteplains.com/,50 Bank Street,White Plains,NY,10606,(914) 949-4000,1-914-949-4000
51,https://www.mbusa.com/mercedes/dealers/locator#!layout=/dealers/locator&businessType=DEALERS&radius=0%2C25&expandRadius=false&searchType=byZip&zip=10021,23.00 mi,Mercedes-Benz of Nanuet,Mercedes-Benz of Nanuet,http://www.nanuet.mercedesdealer.com/,99 Route 304,Nanuet,NY,10954,(845) 624-1500,1-845-624-1500
52,https://www.mbusa.com/mercedes/dealers/locator#!layout=/dealers/locator&businessType=DEALERS&radius=0%2C25&expandRadius=false&searchType=byZip&zip=10021,24.34 mi,Mercedes-Benz of Greenwich,Mercedes-Benz of Greenwich,http://www.greenwichmb.com/,261 West Putnam Ave.,Greenwich,CT,6830,(203) 869-2850,1-203-869-2850
53,https://www.mbusa.com/mercedes/dealers/locator#!layout=/dealers/locator&businessType=DEALERS&radius=0%2C25&expandRadius=false&searchType=byZip&zip=10022,1.43 mi,"Mercedes-Benz Manhattan, Inc.","Mercedes-Benz Manhattan, Inc.",http://www.mbmanhattan.com/,770 11th Avenue,New York,NY,10019,(212) 629-1600,1-212-629-1600
54,https://www.mbusa.com/mercedes/dealers/locator#!layout=/dealers/locator&businessType=DEALERS&radius=0%2C25&expandRadius=false&searchType=byZip&zip=10022,2.26 mi,Silver Star Motors,Silver Star Motors,http://www.silverstar.mercedesdealer.com/,36-11 Northern Boulevard,Long Island City,NY,11101,(718) 361-2332,1-718-361-2332
55,https://www.mbusa.com/mercedes/dealers/locator#!layout=/dealers/locator&businessType=DEALERS&radius=0%2C25&expandRadius=false&searchType=byZip&zip=10022,9.16 mi,Benzel-Busch Motor Car Corp.,Benzel-Busch Motor Car Corp.,http://mercedes.benzelbusch.com/,28 Grand Avenue,Englewood,NJ,7631,(866) 751-2754,1-866-751-2754
56,https://www.mbusa.com/mercedes/dealers/locator#!layout=/dealers/locator&businessType=DEALERS&radius=0%2C25&expandRadius=false&searchType=byZip&zip=10022,10.22 mi,"Helms Bros., Inc.","Helms Bros., Inc.",http://www.helmsbros.mercedesdealer.com/,208-24 Northern Blvd.,Bayside,NY,11361,(718) 631-8181,1-718-631-8181
57,https://www.mbusa.com/mercedes/dealers/locator#!layout=/dealers/locator&businessType=DEALERS&radius=0%2C25&expandRadius=false&searchType=byZip&zip=10022,11.66 mi,Mercedes-Benz of Brooklyn,Mercedes-Benz of Brooklyn,http://www.brooklyn.mercedesdealer.com/,1810 Shore Parkway,Brooklyn,NY,11214,(718) 258-5100,1-718-258-5100
58,https://www.mbusa.com/mercedes/dealers/locator#!layout=/dealers/locator&businessType=DEALERS&radius=0%2C25&expandRadius=false&searchType=byZip&zip=10022,13.94 mi,"Prestige Motors, Inc.","Prestige Motors, Inc.",http://www.prestige.mercedesdealer.com/,755 Route 17,Paramus,NJ,7652,(201) 265-7800,1-201-265-7800
59,https://www.mbusa.com/mercedes/dealers/locator#!layout=/dealers/locator&businessType=DEALERS&radius=0%2C25&expandRadius=false&searchType=byZip&zip=10022,15.51 mi,Mercedes-Benz of New Rochelle,Mercedes-Benz of New Rochelle,http://www.mbnewrochelle.com/,77 East Main Street,New Rochelle,NY,10801,(914) 275-4000,1-914-275-4000
60,https://www.mbusa.com/mercedes/dealers/locator#!layout=/dealers/locator&businessType=DEALERS&radius=0%2C25&expandRadius=false&searchType=byZip&zip=10022,17.40 mi,Rallye Motors LLC,Rallye Motors LLC,http://www.rallyemotors.com/,1600 Northern Blvd.,Roslyn,NY,11576,(516) 625-1600,1-516-625-1600
61,https://www.mbusa.com/mercedes/dealers/locator#!layout=/dealers/locator&businessType=DEALERS&radius=0%2C25&expandRadius=false&searchType=byZip&zip=10022,18.16 mi,Ray Catena of Union LLC,Ray Catena of Union LLC,http://www.raycatenaunion.com/,2585 Route 22 West,Union,NJ,7083,(908) 379-7200,1-908-379-7200
62,https://www.mbusa.com/mercedes/dealers/locator#!layout=/dealers/locator&businessType=DEALERS&radius=0%2C25&expandRadius=false&searchType=byZip&zip=10022,19.24 mi,Mercedes-Benz of Caldwell,Mercedes-Benz of Caldwell,http://www.caldwell.mercedesdealer.com/,1230 Bloomfield Avenue,Fairfield,NJ,7004,(973) 227-3600,1-973-227-3600
63,https://www.mbusa.com/mercedes/dealers/locator#!layout=/dealers/locator&businessType=DEALERS&radius=0%2C25&expandRadius=false&searchType=byZip&zip=10022,19.27 mi,Mercedes-Benz of Rockville Centre,Mercedes-Benz of Rockville Centre,http://www.lakeview.mercedesdealer.com/,650 Sunrise Highway,Rockville Centre,NY,11570,(516) 766-6900,1-516-766-6900
64,https://www.mbusa.com/mercedes/dealers/locator#!layout=/dealers/locator&businessType=DEALERS&radius=0%2C25&expandRadius=false&searchType=byZip&zip=10022,21.20 mi,Mercedes-Benz of White Plains,Mercedes-Benz of White Plains,http://www.mbwhiteplains.com/,50 Bank Street,White Plains,NY,10606,(914) 949-4000,1-914-949-4000
65,https://www.mbusa.com/mercedes/dealers/locator#!layout=/dealers/locator&businessType=DEALERS&radius=0%2C25&expandRadius=false&searchType=byZip&zip=10022,23.69 mi,Mercedes-Benz of Nanuet,Mercedes-Benz of Nanuet,http://www.nanuet.mercedesdealer.com/,99 Route 304,Nanuet,NY,10954,(845) 624-1500,1-845-624-1500
66,https://www.mbusa.com/mercedes/dealers/locator#!layout=/dealers/locator&businessType=DEALERS&radius=0%2C25&expandRadius=false&searchType=byZip&zip=10023,1.50 mi,"Mercedes-Benz Manhattan, Inc.","Mercedes-Benz Manhattan, Inc.",http://www.mbmanhattan.com/,770 11th Avenue,New York,NY,10019,(212) 629-1600,1-212-629-1600
67,https://www.mbusa.com/mercedes/dealers/locator#!layout=/dealers/locator&businessType=DEALERS&radius=0%2C25&expandRadius=false&searchType=byZip&zip=10023,3.23 mi,Silver Star Motors,Silver Star Motors,http://www.silverstar.mercedesdealer.com/,36-11 Northern Boulevard,Long Island City,NY,11101,(718) 361-2332,1-718-361-2332
68,https://www.mbusa.com/mercedes/dealers/locator#!layout=/dealers/locator&businessType=DEALERS&radius=0%2C25&expandRadius=false&searchType=byZip&zip=10023,7.95 mi,Benzel-Busch Motor Car Corp.,Benzel-Busch Motor Car Corp.,http://mercedes.benzelbusch.com/,28 Grand Avenue,Englewood,NJ,7631,(866) 751-2754,1-866-751-2754
69,https://www.mbusa.com/mercedes/dealers/locator#!layout=/dealers/locator&businessType=DEALERS&radius=0%2C25&expandRadius=false&searchType=byZip&zip=10023,10.82 mi,"Helms Bros., Inc.","Helms Bros., Inc.",http://www.helmsbros.mercedesdealer.com/,208-24 Northern Blvd.,Bayside,NY,11361,(718) 631-8181,1-718-631-8181
70,https://www.mbusa.com/mercedes/dealers/locator#!layout=/dealers/locator&businessType=DEALERS&radius=0%2C25&expandRadius=false&searchType=byZip&zip=10023,12.62 mi,"Prestige Motors, Inc.","Prestige Motors, Inc.",http://www.prestige.mercedesdealer.com/,755 Route 17,Paramus,NJ,7652,(201) 265-7800,1-201-265-7800
71,https://www.mbusa.com/mercedes/dealers/locator#!layout=/dealers/locator&businessType=DEALERS&radius=0%2C25&expandRadius=false&searchType=byZip&zip=10023,12.81 mi,Mercedes-Benz of Brooklyn,Mercedes-Benz of Brooklyn,http://www.brooklyn.mercedesdealer.com/,1810 Shore Parkway,Brooklyn,NY,11214,(718) 258-5100,1-718-258-5100
72,https://www.mbusa.com/mercedes/dealers/locator#!layout=/dealers/locator&businessType=DEALERS&radius=0%2C25&expandRadius=false&searchType=byZip&zip=10023,15.06 mi,Mercedes-Benz of New Rochelle,Mercedes-Benz of New Rochelle,http://www.mbnewrochelle.com/,77 East Main Street,New Rochelle,NY,10801,(914) 275-4000,1-914-275-4000
73,https://www.mbusa.com/mercedes/dealers/locator#!layout=/dealers/locator&businessType=DEALERS&radius=0%2C25&expandRadius=false&searchType=byZip&zip=10023,17.75 mi,Rallye Motors LLC,Rallye Motors LLC,http://www.rallyemotors.com/,1600 Northern Blvd.,Roslyn,NY,11576,(516) 625-1600,1-516-625-1600
74,https://www.mbusa.com/mercedes/dealers/locator#!layout=/dealers/locator&businessType=DEALERS&radius=0%2C25&expandRadius=false&searchType=byZip&zip=10023,18.00 mi,Ray Catena of Union LLC,Ray Catena of Union LLC,http://www.raycatenaunion.com/,2585 Route 22 West,Union,NJ,7083,(908) 379-7200,1-908-379-7200
75,https://www.mbusa.com/mercedes/dealers/locator#!layout=/dealers/locator&businessType=DEALERS&radius=0%2C25&expandRadius=false&searchType=byZip&zip=10023,18.33 mi,Mercedes-Benz of Caldwell,Mercedes-Benz of Caldwell,http://www.caldwell.mercedesdealer.com/,1230 Bloomfield Avenue,Fairfield,NJ,7004,(973) 227-3600,1-973-227-3600
76,https://www.mbusa.com/mercedes/dealers/locator#!layout=/dealers/locator&businessType=DEALERS&radius=0%2C25&expandRadius=false&searchType=byZip&zip=10023,20.24 mi,Mercedes-Benz of Rockville Centre,Mercedes-Benz of Rockville Centre,http://www.lakeview.mercedesdealer.com/,650 Sunrise Highway,Rockville Centre,NY,11570,(516) 766-6900,1-516-766-6900
77,https://www.mbusa.com/mercedes/dealers/locator#!layout=/dealers/locator&businessType=DEALERS&radius=0%2C25&expandRadius=false&searchType=byZip&zip=10023,20.43 mi,Mercedes-Benz of White Plains,Mercedes-Benz of White Plains,http://www.mbwhiteplains.com/,50 Bank Street,White Plains,NY,10606,(914) 949-4000,1-914-949-4000
78,https://www.mbusa.com/mercedes/dealers/locator#!layout=/dealers/locator&businessType=DEALERS&radius=0%2C25&expandRadius=false&searchType=byZip&zip=10023,22.45 mi,Mercedes-Benz of Nanuet,Mercedes-Benz of Nanuet,http://www.nanuet.mercedesdealer.com/,99 Route 304,Nanuet,NY,10954,(845) 624-1500,1-845-624-1500
79,https://www.mbusa.com/mercedes/dealers/locator#!layout=/dealers/locator&businessType=DEALERS&radius=0%2C25&expandRadius=false&searchType=byZip&zip=10023,24.82 mi,Mercedes-Benz of Greenwich,Mercedes-Benz of Greenwich,http://www.greenwichmb.com/,261 West Putnam Ave.,Greenwich,CT,6830,(203) 869-2850,1-203-869-2850
80,https://www.mbusa.com/mercedes/dealers/locator#!layout=/dealers/locator&businessType=DEALERS&radius=0%2C25&expandRadius=false&searchType=byZip&zip=10024,2.19 mi,"Mercedes-Benz Manhattan, Inc.","Mercedes-Benz Manhattan, Inc.",http://www.mbmanhattan.com/,770 11th Avenue,New York,NY,10019,(212) 629-1600,1-212-629-1600
81,https://www.mbusa.com/mercedes/dealers/locator#!layout=/dealers/locator&businessType=DEALERS&radius=0%2C25&expandRadius=false&searchType=byZip&zip=10024,3.38 mi,Silver Star Motors,Silver Star Motors,http://www.silverstar.mercedesdealer.com/,36-11 Northern Boulevard,Long Island City,NY,11101,(718) 361-2332,1-718-361-2332
82,https://www.mbusa.com/mercedes/dealers/locator#!layout=/dealers/locator&businessType=DEALERS&radius=0%2C25&expandRadius=false&searchType=byZip&zip=10024,7.32 mi,Benzel-Busch Motor Car Corp.,Benzel-Busch Motor Car Corp.,http://mercedes.benzelbusch.com/,28 Grand Avenue,Englewood,NJ,7631,(866) 751-2754,1-866-751-2754
83,https://www.mbusa.com/mercedes/dealers/locator#!layout=/dealers/locator&businessType=DEALERS&radius=0%2C25&expandRadius=false&searchType=byZip&zip=10024,10.61 mi,"Helms Bros., Inc.","Helms Bros., Inc.",http://www.helmsbros.mercedesdealer.com/,208-24 Northern Blvd.,Bayside,NY,11361,(718) 631-8181,1-718-631-8181
84,https://www.mbusa.com/mercedes/dealers/locator#!layout=/dealers/locator&businessType=DEALERS&radius=0%2C25&expandRadius=false&searchType=byZip&zip=10024,12.17 mi,"Prestige Motors, Inc.","Prestige Motors, Inc.",http://www.prestige.mercedesdealer.com/,755 Route 17,Paramus,NJ,7652,(201) 265-7800,1-201-265-7800
85,https://www.mbusa.com/mercedes/dealers/locator#!layout=/dealers/locator&businessType=DEALERS&radius=0%2C25&expandRadius=false&searchType=byZip&zip=10024,13.46 mi,Mercedes-Benz of Brooklyn,Mercedes-Benz of Brooklyn,http://www.brooklyn.mercedesdealer.com/,1810 Shore Parkway,Brooklyn,NY,11214,(718) 258-5100,1-718-258-5100
86,https://www.mbusa.com/mercedes/dealers/locator#!layout=/dealers/locator&businessType=DEALERS&radius=0%2C25&expandRadius=false&searchType=byZip&zip=10024,14.41 mi,Mercedes-Benz of New Rochelle,Mercedes-Benz of New Rochelle,http://www.mbnewrochelle.com/,77 East Main Street,New Rochelle,NY,10801,(914) 275-4000,1-914-275-4000
87,https://www.mbusa.com/mercedes/dealers/locator#!layout=/dealers/locator&businessType=DEALERS&radius=0%2C25&expandRadius=false&searchType=byZip&zip=10024,17.39 mi,Rallye Motors LLC,Rallye Motors LLC,http://www.rallyemotors.com/,1600 Northern Blvd.,Roslyn,NY,11576,(516) 625-1600,1-516-625-1600
88,https://www.mbusa.com/mercedes/dealers/locator#!layout=/dealers/locator&businessType=DEALERS&radius=0%2C25&expandRadius=false&searchType=byZip&zip=10024,18.45 mi,Mercedes-Benz of Caldwell,Mercedes-Benz of Caldwell,http://www.caldwell.mercedesdealer.com/,1230 Bloomfield Avenue,Fairfield,NJ,7004,(973) 227-3600,1-973-227-3600
89,https://www.mbusa.com/mercedes/dealers/locator#!layout=/dealers/locator&businessType=DEALERS&radius=0%2C25&expandRadius=false&searchType=byZip&zip=10024,18.51 mi,Ray Catena of Union LLC,Ray Catena of Union LLC,http://www.raycatenaunion.com/,2585 Route 22 West,Union,NJ,7083,(908) 379-7200,1-908-379-7200
90,https://www.mbusa.com/mercedes/dealers/locator#!layout=/dealers/locator&businessType=DEALERS&radius=0%2C25&expandRadius=false&searchType=byZip&zip=10024,19.73 mi,Mercedes-Benz of White Plains,Mercedes-Benz of White Plains,http://www.mbwhiteplains.com/,50 Bank Street,White Plains,NY,10606,(914) 949-4000,1-914-949-4000
91,https://www.mbusa.com/mercedes/dealers/locator#!layout=/dealers/locator&businessType=DEALERS&radius=0%2C25&expandRadius=false&searchType=byZip&zip=10024,20.22 mi,Mercedes-Benz of Rockville Centre,Mercedes-Benz of Rockville Centre,http://www.lakeview.mercedesdealer.com/,650 Sunrise Highway,Rockville Centre,NY,11570,(516) 766-6900,1-516-766-6900
92,https://www.mbusa.com/mercedes/dealers/locator#!layout=/dealers/locator&businessType=DEALERS&radius=0%2C25&expandRadius=false&searchType=byZip&zip=10024,21.85 mi,Mercedes-Benz of Nanuet,Mercedes-Benz of Nanuet,http://www.nanuet.mercedesdealer.com/,99 Route 304,Nanuet,NY,10954,(845) 624-1500,1-845-624-1500
93,https://www.mbusa.com/mercedes/dealers/locator#!layout=/dealers/locator&businessType=DEALERS&radius=0%2C25&expandRadius=false&searchType=byZip&zip=10024,24.17 mi,Mercedes-Benz of Greenwich,Mercedes-Benz of Greenwich,http://www.greenwichmb.com/,261 West Putnam Ave.,Greenwich,CT,6830,(203) 869-2850,1-203-869-2850
94,https://www.mbusa.com/mercedes/dealers/locator#!layout=/dealers/locator&businessType=DEALERS&radius=0%2C25&expandRadius=false&searchType=byZip&zip=10025,3.18 mi,"Mercedes-Benz Manhattan, Inc.","Mercedes-Benz Manhattan, Inc.",http://www.mbmanhattan.com/,770 11th Avenue,New York,NY,10019,(212) 629-1600,1-212-629-1600
95,https://www.mbusa.com/mercedes/dealers/locator#!layout=/dealers/locator&businessType=DEALERS&radius=0%2C25&expandRadius=false&searchType=byZip&zip=10025,3.93 mi,Silver Star Motors,Silver Star Motors,http://www.silverstar.mercedesdealer.com/,36-11 Northern Boulevard,Long Island City,NY,11101,(718) 361-2332,1-718-361-2332
96,https://www.mbusa.com/mercedes/dealers/locator#!layout=/dealers/locator&businessType=DEALERS&radius=0%2C25&expandRadius=false&searchType=byZip&zip=10025,6.36 mi,Benzel-Busch Motor Car Corp.,Benzel-Busch Motor Car Corp.,http://mercedes.benzelbusch.com/,28 Grand Avenue,Englewood,NJ,7631,(866) 751-2754,1-866-751-2754
97,https://www.mbusa.com/mercedes/dealers/locator#!layout=/dealers/locator&businessType=DEALERS&radius=0%2C25&expandRadius=false&searchType=byZip&zip=10025,10.53 mi,"Helms Bros., Inc.","Helms Bros., Inc.",http://www.helmsbros.mercedesdealer.com/,208-24 Northern Blvd.,Bayside,NY,11361,(718) 631-8181,1-718-631-8181
98,https://www.mbusa.com/mercedes/dealers/locator#!layout=/dealers/locator&businessType=DEALERS&radius=0%2C25&expandRadius=false&searchType=byZip&zip=10025,11.44 mi,"Prestige Motors, Inc.","Prestige Motors, Inc.",http://www.prestige.mercedesdealer.com/,755 Route 17,Paramus,NJ,7652,(201) 265-7800,1-201-265-7800
99,https://www.mbusa.com/mercedes/dealers/locator#!layout=/dealers/locator&businessType=DEALERS&radius=0%2C25&expandRadius=false&searchType=byZip&zip=10025,13.56 mi,Mercedes-Benz of New Rochelle,Mercedes-Benz of New Rochelle,http://www.mbnewrochelle.com/,77 East Main Street,New Rochelle,NY,10801,(914) 275-4000,1-914-275-4000
100,https://www.mbusa.com/mercedes/dealers/locator#!layout=/dealers/locator&businessType=DEALERS&radius=0%2C25&expandRadius=false&searchType=byZip&zip=10025,14.45 mi,Mercedes-Benz of Brooklyn,Mercedes-Benz of Brooklyn,http://www.brooklyn.mercedesdealer.com/,1810 Shore Parkway,Brooklyn,NY,11214,(718) 258-5100,1-718-258-5100
101,https://www.mbusa.com/mercedes/dealers/locator#!layout=/dealers/locator&businessType=DEALERS&radius=0%2C25&expandRadius=false&searchType=byZip&zip=10025,17.03 mi,Rallye Motors LLC,Rallye Motors LLC,http://www.rallyemotors.com/,1600 Northern Blvd.,Roslyn,NY,11576,(516) 625-1600,1-516-625-1600
102,https://www.mbusa.com/mercedes/dealers/locator#!layout=/dealers/locator&businessType=DEALERS&radius=0%2C25&expandRadius=false&searchType=byZip&zip=10025,18.52 mi,Mercedes-Benz of Caldwell,Mercedes-Benz of Caldwell,http://www.caldwell.mercedesdealer.com/,1230 Bloomfield Avenue,Fairfield,NJ,7004,(973) 227-3600,1-973-227-3600
103,https://www.mbusa.com/mercedes/dealers/locator#!layout=/dealers/locator&businessType=DEALERS&radius=0%2C25&expandRadius=false&searchType=byZip&zip=10025,18.75 mi,Mercedes-Benz of White Plains,Mercedes-Benz of White Plains,http://www.mbwhiteplains.com/,50 Bank Street,White Plains,NY,10606,(914) 949-4000,1-914-949-4000
104,https://www.mbusa.com/mercedes/dealers/locator#!layout=/dealers/locator&businessType=DEALERS&radius=0%2C25&expandRadius=false&searchType=byZip&zip=10025,19.16 mi,Ray Catena of Union LLC,Ray Catena of Union LLC,http://www.raycatenaunion.com/,2585 Route 22 West,Union,NJ,7083,(908) 379-7200,1-908-379-7200
105,https://www.mbusa.com/mercedes/dealers/locator#!layout=/dealers/locator&businessType=DEALERS&radius=0%2C25&expandRadius=false&searchType=byZip&zip=10025,20.39 mi,Mercedes-Benz of Rockville Centre,Mercedes-Benz of Rockville Centre,http://www.lakeview.mercedesdealer.com/,650 Sunrise Highway,Rockville Centre,NY,11570,(516) 766-6900,1-516-766-6900
106,https://www.mbusa.com/mercedes/dealers/locator#!layout=/dealers/locator&businessType=DEALERS&radius=0%2C25&expandRadius=false&searchType=byZip&zip=10025,20.90 mi,Mercedes-Benz of Nanuet,Mercedes-Benz of Nanuet,http://www.nanuet.mercedesdealer.com/,99 Route 304,Nanuet,NY,10954,(845) 624-1500,1-845-624-1500
107,https://www.mbusa.com/mercedes/dealers/locator#!layout=/dealers/locator&businessType=DEALERS&radius=0%2C25&expandRadius=false&searchType=byZip&zip=10025,23.29 mi,Mercedes-Benz of Greenwich,Mercedes-Benz of Greenwich,http://www.greenwichmb.com/,261 West Putnam Ave.,Greenwich,CT,6830,(203) 869-2850,1-203-869-2850
